{
  "type": "FeatureCollection",
  "features": [
    {
      "type": "Feature",
      "properties": {
        "norad_id": 54741,
        "name": "GALAXY 35 (G-35)",
        "group": "intelsat",
        "lat": 0.0026697068213276808,
        "lon": -168.16007441798385,
        "alt_km": 35782.78657096753,
        "timestamp": "2025-12-08T13:49:31.461423+00:00",
        "meta_object_name": "GALAXY 35 (G-35)",
        "meta_object_id": "2022-170A",
        "meta_epoch": "2025-12-08T06:05:11.066784",
        "meta_mean_motion": 1.00271048,
        "meta_eccentricity": 0.0002692,
        "meta_inclination": 0.0173,
        "meta_ra_of_asc_node": 70.6993,
        "meta_arg_of_pericenter": 193.2206,
        "meta_mean_anomaly": 171.5523,
        "meta_ephemeris_type": 0,
        "meta_classification_type": "U",
        "meta_norad_cat_id": 54741,
        "meta_element_set_no": 999,
        "meta_rev_at_epoch": 1097,
        "meta_bstar": 0,
        "meta_mean_motion_dot": -1.6e-06,
        "meta_mean_motion_ddot": 0,
        "tle_line1": "1 54741U 22170A   25342.25360031 -.00000160  00000+0  00000+0 0  9995",
        "tle_line2": "2 54741   0.0173  70.6993 0002692 193.2206 171.5523  1.00271048 10974"
      },
      "geometry": {
        "type": "Point",
        "coordinates": [
          -168.16007441798385,
          0.0026697068213276808
        ]
      }
    },
    {
      "type": "Feature",
      "properties": {
        "norad_id": 54742,
        "name": "GALAXY 36 (G-36)",
        "group": "intelsat",
        "lat": -0.006943453259402,
        "lon": -164.05206852473515,
        "alt_km": 35786.12086377772,
        "timestamp": "2025-12-08T13:49:31.461434+00:00",
        "meta_object_name": "GALAXY 36 (G-36)",
        "meta_object_id": "2022-170B",
        "meta_epoch": "2025-12-08T06:07:07.853664",
        "meta_mean_motion": 1.00270845,
        "meta_eccentricity": 6.009e-05,
        "meta_inclination": 0.0076,
        "meta_ra_of_asc_node": 17.0792,
        "meta_arg_of_pericenter": 263.4805,
        "meta_mean_anomaly": 159.4861,
        "meta_ephemeris_type": 0,
        "meta_classification_type": "U",
        "meta_norad_cat_id": 54742,
        "meta_element_set_no": 999,
        "meta_rev_at_epoch": 1085,
        "meta_bstar": 0,
        "meta_mean_motion_dot": -1.83e-06,
        "meta_mean_motion_ddot": 0,
        "tle_line1": "1 54742U 22170B   25342.25495201 -.00000183  00000+0  00000+0 0  9999",
        "tle_line2": "2 54742   0.0076  17.0792 0000600 263.4805 159.4861  1.00270845 10852"
      },
      "geometry": {
        "type": "Point",
        "coordinates": [
          -164.05206852473515,
          -0.006943453259402
        ]
      }
    },
    {
      "type": "Feature",
      "properties": {
        "norad_id": 57493,
        "name": "GALAXY 37 (G-37)",
        "group": "intelsat",
        "lat": -0.0034817657115410842,
        "lon": 157.93260135199608,
        "alt_km": 35788.765630288966,
        "timestamp": "2025-12-08T13:49:31.461446+00:00",
        "meta_object_name": "GALAXY 37 (G-37)",
        "meta_object_id": "2023-112A",
        "meta_epoch": "2025-12-08T06:46:03.618048",
        "meta_mean_motion": 1.00271142,
        "meta_eccentricity": 0.00023782,
        "meta_inclination": 0.0101,
        "meta_ra_of_asc_node": 324.5093,
        "meta_arg_of_pericenter": 297.9622,
        "meta_mean_anomaly": 149.3372,
        "meta_ephemeris_type": 0,
        "meta_classification_type": "U",
        "meta_norad_cat_id": 57493,
        "meta_element_set_no": 999,
        "meta_rev_at_epoch": 862,
        "meta_bstar": 0,
        "meta_mean_motion_dot": 5.1e-07,
        "meta_mean_motion_ddot": 0,
        "tle_line1": "1 57493U 23112A   25342.28198632  .00000051  00000+0  00000+0 0  9996",
        "tle_line2": "2 57493   0.0101 324.5093 0002378 297.9622 149.3372  1.00271142  8628"
      },
      "geometry": {
        "type": "Point",
        "coordinates": [
          157.93260135199608,
          -0.0034817657115410842
        ]
      }
    }
  ]
}